ORBCOMM FM115           
1 41186U 15081H   25316.76063714  .00001923  00000+0  40683-3 0  9994
2 41186  46.9993  52.7866 0000758 318.7059  41.3771 14.62829928529526
ORBCOMM FM108           
1 41187U 15081J   25316.84526322  .00001789  00000+0  41796-3 0  9999
2 41187  47.0029 124.7757 0002804 269.8060  90.2504 14.58483867528495
ORBCOMM FM117           
1 41188U 15081K   25317.15407852  .00001409  00000+0  33688-3 0  9991
2 41188  46.9995 122.0302 0003287 280.8199  79.2316 14.58479656528584
ORBCOMM FM116           
1 41189U 15081L   25316.93005889  .00002821  00000+0  63650-3 0  9992
2 41189  47.0006 212.8720 0001249 129.9870 230.1125 14.58575055527368
